[
  {"town": "Portland", "state": "ME", "zip": "04101", "lat": 43.6615, "lon": -70.2553, "stationId": "8418150"},
  {"town": "Kennebunkport", "state": "ME", "zip": "04046", "lat": 43.3618, "lon": -70.4762, "stationId": "8419807"},
  {"town": "Bar Harbor", "state": "ME", "zip": "04609", "lat": 44.3876, "lon": -68.2039, "stationId": "8413320"},
  {"town": "Wells", "state": "ME", "zip": "04090", "lat": 43.3212, "lon": -70.5806, "stationId": "8419317"},
  {"town": "York", "state": "ME", "zip": "03909", "lat": 43.1617, "lon": -70.6467, "stationId": "8419528"},
  {"town": "Portsmouth", "state": "NH", "zip": "03801", "lat": 43.0718, "lon": -70.7626, "stationId": "8423745"},
  {"town": "Hampton", "state": "NH", "zip": "03842", "lat": 42.9117, "lon": -70.8120, "stationId": "8429489"},
  {"town": "Newburyport", "state": "MA", "zip": "01950", "lat": 42.8126, "lon": -70.8773, "stationId": "8440466"},
  {"town": "Gloucester", "state": "MA", "zip": "01930", "lat": 42.6159, "lon": -70.6610, "stationId": "8441841"},
  {"town": "Salem", "state": "MA", "zip": "01970", "lat": 42.5195, "lon": -70.8967, "stationId": "8442645"},
  {"town": "Boston", "state": "MA", "zip": "02108", "lat": 42.3601, "lon": -71.0589, "stationId": "8443970"},
  {"town": "Plymouth", "state": "MA", "zip": "02360", "lat": 41.9584, "lon": -70.6673, "stationId": "8446493"},
  {"town": "Chatham", "state": "MA", "zip": "02633", "lat": 41.6826, "lon": -69.9656, "stationId": "8447435"},
  {"town": "Hyannis", "state": "MA", "zip": "02601", "lat": 41.6525, "lon": -70.2881, "stationId": "8447930"},
  {"town": "Sandwich", "state": "MA", "zip": "02563", "lat": 41.7587, "lon": -70.4934, "stationId": "8447180"},
  {"town": "Newport", "state": "RI", "zip": "02840", "lat": 41.4901, "lon": -71.3128, "stationId": "8452660"},
  {"town": "Narragansett", "state": "RI", "zip": "02882", "lat": 41.4501, "lon": -71.4495, "stationId": "8454658"},
  {"town": "Westerly", "state": "RI", "zip": "02891", "lat": 41.3776, "lon": -71.8273, "stationId": "8455189"},
  {"town": "Stonington", "state": "CT", "zip": "06378", "lat": 41.3357, "lon": -71.9054, "stationId": "8461490"},
  {"town": "Mystic", "state": "CT", "zip": "06355", "lat": 41.3543, "lon": -71.9665, "stationId": "8461809"},
  {"town": "New London", "state": "CT", "zip": "06320", "lat": 41.3557, "lon": -72.0995, "stationId": "8461490"},
  {"town": "Old Saybrook", "state": "CT", "zip": "06475", "lat": 41.2915, "lon": -72.3764, "stationId": "8465705"},
  {"town": "Westbrook", "state": "CT", "zip": "06498", "lat": 41.2790, "lon": -72.4470, "stationId": "8465705"},
  {"town": "New Haven", "state": "CT", "zip": "06510", "lat": 41.3083, "lon": -72.9279, "stationId": "8465705"},
  {"town": "Bridgeport", "state": "CT", "zip": "06604", "lat": 41.1792, "lon": -73.1894, "stationId": "8467150"},
  {"town": "Stamford", "state": "CT", "zip": "06901", "lat": 41.0534, "lon": -73.5387, "stationId": "8468448"}
]
